start=new Date('2023-01-08T00:00:00.000Z').valueOf();
sats=[{"BSTAR":"0.00081989000000","INCLINATION":"53.2162","TLE_LINE1":"1 52587U 22051BD  23007.44543732  .00012786  00000-0  81989-3 0  9993","PERIAPSIS":"538.041","REF_FRAME":"TEME","APOAPSIS":"541.432","REV_AT_EPOCH":"3688","EPOCH":"2023-01-07T10:41:25.784448","EPHEMERIS_TYPE":"0","MEAN_ELEMENT_THEORY":"SGP4","OBJECT_ID":"2022-051BD","CLASSIFICATION_TYPE":"U","ARG_OF_PERICENTER":"46.0443","ECCENTRICITY":"0.00024510","MEAN_MOTION_DOT":"0.00012786","FILE":"3735488","TLE_LINE2":"2 52587  53.2162 274.2075 0002451  46.0443 314.0751 15.08842774 36880","OBJECT_NAME":"STARLINK-3867","COUNTRY_CODE":"US","TIME_SYSTEM":"UTC","MEAN_MOTION_DDOT":"0.0000000000000","PERIOD":"95.437","MEAN_MOTION":"15.08842774","ELEMENT_SET_NO":"999","SEMIMAJOR_AXIS":"6917.872","RA_OF_ASC_NODE":"274.2075","CENTER_NAME":"EARTH","GP_ID":"222424813","RCS_SIZE":"LARGE","SITE":"AFWTR","MEAN_ANOMALY":"314.0751","OBJECT_TYPE":"PAYLOAD","DECAY_DATE":null,"LAUNCH_DATE":"2022-05-13","NORAD_CAT_ID":"52587"},{"BSTAR":"-0.00001447700000","INCLINATION":"53.2162","OBJECT_ID":"2022-051BE","MEAN_ELEMENT_THEORY":"SGP4","EPHEMERIS_TYPE":"0","EPOCH":"2023-01-07T20:08:25.853568","TLE_LINE1":"1 52588U 22051BE  23007.83918812 -.00000519  00000-0 -14477-4 0  9994","PERIAPSIS":"538.119","APOAPSIS":"541.401","REF_FRAME":"TEME","REV_AT_EPOCH":"3701","FILE":"3735430","TLE_LINE2":"2 52588  53.2162 272.4404 0002372  26.0524 334.0587 15.08835159 37011","MEAN_MOTION_DOT":"-0.00000519","ECCENTRICITY":"0.00023720","ARG_OF_PERICENTER":"26.0524","CLASSIFICATION_TYPE":"U","OBJECT_NAME":"STARLINK-3917","MEAN_MOTION":"15.08835159","ELEMENT_SET_NO":"999","TIME_SYSTEM":"UTC","MEAN_MOTION_DDOT":"0.0000000000000","PERIOD":"95.438","COUNTRY_CODE":"US","SITE":"AFWTR","MEAN_ANOMALY":"334.0587","RCS_SIZE":"LARGE","CENTER_NAME":"EARTH","GP_ID":"222401118","RA_OF_ASC_NODE":"272.4404","SEMIMAJOR_AXIS":"6917.895","DECAY_DATE":null,"NORAD_CAT_ID":"52588","LAUNCH_DATE":"2022-05-13","OBJECT_TYPE":"PAYLOAD"},{"INCLINATION":"53.2163","BSTAR":"0.00084558000000","CLASSIFICATION_TYPE":"U","ARG_OF_PERICENTER":"35.1658","MEAN_MOTION_DOT":"0.00013195","ECCENTRICITY":"0.00026440","TLE_LINE2":"2 52598  53.2163  77.2589 0002644  35.1658 324.9508 15.08838764 36946","FILE":"3735488","APOAPSIS":"541.578","REV_AT_EPOCH":"3694","REF_FRAME":"TEME","PERIAPSIS":"537.920","TLE_LINE1":"1 52598U 22052A   23007.87738401  .00013195  00000-0  84558-3 0  9992","EPOCH":"2023-01-07T21:03:25.978464","EPHEMERIS_TYPE":"0","MEAN_ELEMENT_THEORY":"SGP4","OBJECT_ID":"2022-052A","COUNTRY_CODE":"US","PERIOD":"95.438","TIME_SYSTEM":"UTC","MEAN_MOTION_DDOT":"0.0000000000000","ELEMENT_SET_NO":"999","MEAN_MOTION":"15.08838764","OBJECT_NAME":"STARLINK-4019","OBJECT_TYPE":"PAYLOAD","NORAD_CAT_ID":"52598","LAUNCH_DATE":"2022-05-14","DECAY_DATE":null,"RA_OF_ASC_NODE":"77.2589","SEMIMAJOR_AXIS":"6917.884","GP_ID":"222424313","CENTER_NAME":"EARTH","RCS_SIZE":"LARGE","SITE":"AFETR","MEAN_ANOMALY":"324.9508"},{"DECAY_DATE":null,"LAUNCH_DATE":"2022-05-14","NORAD_CAT_ID":"52599","OBJECT_TYPE":"PAYLOAD","SITE":"AFETR","MEAN_ANOMALY":"334.7398","RCS_SIZE":"LARGE","GP_ID":"222425062","CENTER_NAME":"EARTH","SEMIMAJOR_AXIS":"6917.871","RA_OF_ASC_NODE":"73.5498","MEAN_MOTION":"15.08843156","ELEMENT_SET_NO":"999","MEAN_MOTION_DDOT":"0.0000000000000","TIME_SYSTEM":"UTC","PERIOD":"95.437","COUNTRY_CODE":"US","OBJECT_NAME":"STARLINK-4024","FILE":"3735488","TLE_LINE2":"2 52599  53.2192  73.5498 0002644  25.3724 334.7398 15.08843156 36972","ECCENTRICITY":"0.00026440","MEAN_MOTION_DOT":"-0.00000390","ARG_OF_PERICENTER":"25.3724","CLASSIFICATION_TYPE":"U","MEAN_ELEMENT_THEORY":"SGP4","OBJECT_ID":"2022-052B","EPHEMERIS_TYPE":"0","EPOCH":"2023-01-07T14:09:26.529696","PERIAPSIS":"537.907","TLE_LINE1":"1 52599U 22052B   23007.58989039 -.00000390  00000-0 -63794-5 0  9992","REF_FRAME":"TEME","APOAPSIS":"541.565","REV_AT_EPOCH":"3697","INCLINATION":"53.2192","BSTAR":"-0.00000637940000"},{"GP_ID":"222425313","CENTER_NAME":"EARTH","SEMIMAJOR_AXIS":"6917.873","RA_OF_ASC_NODE":"73.6062","SITE":"AFETR","MEAN_ANOMALY":"338.1831","RCS_SIZE":"MEDIUM","OBJECT_TYPE":"PAYLOAD","NORAD_CAT_ID":"52600","LAUNCH_DATE":"2022-05-14","DECAY_DATE":null,"OBJECT_NAME":"STARLINK-4026","PERIOD":"95.437","TIME_SYSTEM":"UTC","MEAN_MOTION_DDOT":"0.0000000000000","COUNTRY_CODE":"US","ELEMENT_SET_NO":"999","MEAN_MOTION":"15.08842286","EPOCH":"2023-01-07T13:52:10.696512","APOAPSIS":"541.597","REF_FRAME":"TEME","REV_AT_EPOCH":"3697","TLE_LINE1":"1 52600U 22052C   23007.57790158  .00015023  00000-0  95989-3 0  9992","PERIAPSIS":"537.880","OBJECT_ID":"2022-052C","MEAN_ELEMENT_THEORY":"SGP4","EPHEMERIS_TYPE":"0","ARG_OF_PERICENTER":"21.9276","CLASSIFICATION_TYPE":"U","TLE_LINE2":"2 52600  53.2186  73.6062 0002687  21.9276 338.1831 15.08842286 36970","FILE":"3735488","MEAN_MOTION_DOT":"0.00015023","ECCENTRICITY":"0.00026870","BSTAR":"0.00095989000000","INCLINATION":"53.2186"},{"ARG_OF_PERICENTER":"16.4066","CLASSIFICATION_TYPE":"U","TLE_LINE2":"2 52601  53.2173  74.7553 0003165  16.4066 343.7028 15.08842690 36937","FILE":"3735488","ECCENTRICITY":"0.00031650","MEAN_MOTION_DOT":"0.00017509","EPOCH":"2023-01-07T07:41:14.052192","APOAPSIS":"541.927","REF_FRAME":"TEME","REV_AT_EPOCH":"3693","TLE_LINE1":"1 52601U 22052D   23007.32030153  .00017509  00000-0  11153-2 0  9999","PERIAPSIS":"537.548","OBJECT_ID":"2022-052D","MEAN_ELEMENT_THEORY":"SGP4","EPHEMERIS_TYPE":"0","INCLINATION":"53.2173","BSTAR":"0.00111530000000","OBJECT_TYPE":"PAYLOAD","LAUNCH_DATE":"2022-05-14","NORAD_CAT_ID":"52601","DECAY_DATE":null,"GP_ID":"222424063","CENTER_NAME":"EARTH","SEMIMAJOR_AXIS":"6917.872","RA_OF_ASC_NODE":"74.7553","SITE":"AFETR","MEAN_ANOMALY":"343.7028","RCS_SIZE":"LARGE","PERIOD":"95.437","MEAN_MOTION_DDOT":"0.0000000000000","TIME_SYSTEM":"UTC","COUNTRY_CODE":"US","ELEMENT_SET_NO":"999","MEAN_MOTION":"15.08842690","OBJECT_NAME":"STARLINK-4027"},{"BSTAR":"-0.00000292920000","INCLINATION":"53.2173","TLE_LINE1":"1 52602U 22052E   23007.91280441 -.00000335  00000-0 -29292-5 0  9999","PERIAPSIS":"538.329","APOAPSIS":"541.224","REV_AT_EPOCH":"3702","REF_FRAME":"TEME","EPOCH":"2023-01-07T21:54:26.301024","EPHEMERIS_TYPE":"0","MEAN_ELEMENT_THEORY":"SGP4","OBJECT_ID":"2022-052E","CLASSIFICATION_TYPE":"U","ARG_OF_PERICENTER":"37.8668","ECCENTRICITY":"0.00020920","MEAN_MOTION_DOT":"-0.00000335","FILE":"3735488","TLE_LINE2":"2 52602  53.2173  72.0908 0002092  37.8668 322.2471 15.08829817 37027","OBJECT_NAME":"STARLINK-4012","COUNTRY_CODE":"US","MEAN_MOTION_DDOT":"0.0000000000000","TIME_SYSTEM":"UTC","PERIOD":"95.438","MEAN_MOTION":"15.08829817","ELEMENT_SET_NO":"999","RA_OF_ASC_NODE":"72.0908","SEMIMAJOR_AXIS":"6917.912","GP_ID":"222424814","CENTER_NAME":"EARTH","RCS_SIZE":"LARGE","SITE":"AFETR","MEAN_ANOMALY":"322.2471","OBJECT_TYPE":"PAYLOAD","DECAY_DATE":null,"NORAD_CAT_ID":"52602","LAUNCH_DATE":"2022-05-14"},{"INCLINATION":"53.2164","BSTAR":"0.00132740000000","MEAN_MOTION_DOT":"0.00020908","ECCENTRICITY":"0.00033480","TLE_LINE2":"2 52603  53.2164  72.1757 0003348  23.6110 336.5035 15.08849716 37025","FILE":"3735488","CLASSIFICATION_TYPE":"U","ARG_OF_PERICENTER":"23.6110","EPHEMERIS_TYPE":"0","OBJECT_ID":"2022-052F","MEAN_ELEMENT_THEORY":"SGP4","APOAPSIS":"542.032","REV_AT_EPOCH":"3702","REF_FRAME":"TEME","PERIAPSIS":"537.400","TLE_LINE1":"1 52603U 22052F   23007.89807901  .00020908  00000-0  13274-2 0  9999","EPOCH":"2023-01-07T21:33:14.026464","ELEMENT_SET_NO":"999","MEAN_MOTION":"15.08849716","COUNTRY_CODE":"US","PERIOD":"95.437","MEAN_MOTION_DDOT":"0.0000000000000","TIME_SYSTEM":"UTC","OBJECT_NAME":"STARLINK-4016","LAUNCH_DATE":"2022-05-14","NORAD_CAT_ID":"52603","DECAY_DATE":null,"OBJECT_TYPE":"PAYLOAD","RCS_SIZE":"LARGE","SITE":"AFETR","MEAN_ANOMALY":"336.5035","SEMIMAJOR_AXIS":"6917.851","RA_OF_ASC_NODE":"72.1757","GP_ID":"222425563","CENTER_NAME":"EARTH"},{"MEAN_ELEMENT_THEORY":"SGP4","OBJECT_ID":"2022-052G","EPHEMERIS_TYPE":"0","EPOCH":"2023-01-07T21:43:48.513504","REV_AT_EPOCH":"3622","APOAPSIS":"541.174","REF_FRAME":"TEME","TLE_LINE1":"1 52604U 22052G   23007.90542261  .00008503  00000-0  55170-3 0  9996","PERIAPSIS":"538.321","TLE_LINE2":"2 52604  53.2181  72.1261 0002062   9.2529 350.8501 15.08839427 36227","FILE":"3735488","ECCENTRICITY":"0.00020620","MEAN_MOTION_DOT":"0.00008503","ARG_OF_PERICENTER":"9.2529","CLASSIFICATION_TYPE":"U","BSTAR":"0.00055170000000","INCLINATION":"53.2181","MEAN_ANOMALY":"350.8501","SITE":"AFETR","RCS_SIZE":"LARGE","CENTER_NAME":"EARTH","GP_ID":"222425814","SEMIMAJOR_AXIS":"6917.882","RA_OF_ASC_NODE":"72.1261","LAUNCH_DATE":"2022-05-14","NORAD_CAT_ID":"52604","DECAY_DATE":null,"OBJECT_TYPE":"PAYLOAD","OBJECT_NAME":"STARLINK-4013","ELEMENT_SET_NO":"999","MEAN_MOTION":"15.08839427","PERIOD":"95.438","TIME_SYSTEM":"UTC","MEAN_MOTION_DDOT":"0.0000000000000","COUNTRY_CODE":"US"},{"BSTAR":"0.00099597000000","INCLINATION":"53.2167","EPHEMERIS_TYPE":"0","OBJECT_ID":"2022-052H","MEAN_ELEMENT_THEORY":"SGP4","TLE_LINE1":"1 52605U 22052H   23007.60874101  .00015597  00000-0  99597-3 0  9997","PERIAPSIS":"538.061","APOAPSIS":"541.454","REF_FRAME":"TEME","REV_AT_EPOCH":"3610","EPOCH":"2023-01-07T14:36:35.223264","MEAN_MOTION_DOT":"0.00015597","ECCENTRICITY":"0.00024520","FILE":"3735488","TLE_LINE2":"2 52605  53.2167  78.4577 0002452  35.9340 324.1817 15.08835970 36101","CLASSIFICATION_TYPE":"U","ARG_OF_PERICENTER":"35.9340","OBJECT_NAME":"STARLINK-4000","MEAN_MOTION":"15.08835970","ELEMENT_SET_NO":"999","COUNTRY_CODE":"US","MEAN_MOTION_DDOT":"0.0000000000000","TIME_SYSTEM":"UTC","PERIOD":"95.438","RCS_SIZE":"LARGE","SITE":"AFETR","MEAN_ANOMALY":"324.1817","SEMIMAJOR_AXIS":"6917.893","RA_OF_ASC_NODE":"78.4577","CENTER_NAME":"EARTH","GP_ID":"222424564","DECAY_DATE":null,"NORAD_CAT_ID":"52605","LAUNCH_DATE":"2022-05-14","OBJECT_TYPE":"PAYLOAD"}];
